$$SOE
2459580.500000000, A.D. 2022-Jan-01 00:00:00.0000, 3.575430929828815E+07, 4.879455013015410E+08, -3.569545130746517E+07,
2459587.500000000, A.D. 2022-Jan-08 00:00:00.0000, 2.609513275021218E+07, 4.891439798809270E+08, -3.402183557275972E+07,
2459594.500000000, A.D. 2022-Jan-15 00:00:00.0000, 1.642520678762761E+07, 4.901418672031494E+08, -3.233426660761863E+07,
2459601.500000000, A.D. 2022-Jan-22 00:00:00.0000, 6.748519625771546E+06, 4.909393196993477E+08, -3.063347423369703E+07,
2459608.500000000, A.D. 2022-Jan-29 00:00:00.0000, -2.930959612424193E+06, 4.915365738849217E+08, -2.892018925574693E+07,
2459615.500000000, A.D. 2022-Feb-05 00:00:00.0000, -1.260928435930995E+07, 4.919339447126595E+08, -2.719514302807671E+07,
2459622.500000000, A.D. 2022-Feb-12 00:00:00.0000, -2.228253185540967E+07, 4.921318228490574E+08, -2.545906731262809E+07,
2459629.500000000, A.D. 2022-Feb-19 00:00:00.0000, -3.194680351639350E+07, 4.921306732461963E+08, -2.371269411398685E+07,
2459636.500000000, A.D. 2022-Feb-26 00:00:00.0000, -4.159822572481816E+07, 4.919310342868258E+08, -2.195675543019047E+07,
2459643.500000000, A.D. 2022-Mar-05 00:00:00.0000, -5.123295088785649E+07, 4.915335168858578E+08, -2.019198298433286E+07,
2459650.500000000, A.D. 2022-Mar-12 00:00:00.0000, -6.084715854007758E+07, 4.909388034831423E+08, -1.841910796276936E+07,
2459657.500000000, A.D. 2022-Mar-19 00:00:00.0000, -7.043705642113413E+07, 4.901476469564372E+08, -1.663886076430830E+07,
2459664.500000000, A.D. 2022-Mar-26 00:00:00.0000, -7.999888150686626E+07, 4.891608694496034E+08, -1.485197076309451E+07,
2459671.500000000, A.D. 2022-Apr-02 00:00:00.0000, -8.952890092694318E+07, 4.879793610611734E+08, -1.305916609611952E+07,
2459678.500000000, A.D. 2022-Apr-09 00:00:00.0000, -9.902341249799848E+07, 4.866040783991107E+08, -1.126117350002268E+07,
2459685.500000000, A.D. 2022-Apr-16 00:00:00.0000, -1.084787445163471E+08, 4.850360436571121E+08, -9.458718176592857E+06,
2459692.500000000, A.D. 2022-Apr-23 00:00:00.0000, -1.178912560801237E+08, 4.832763452987275E+08, -7.652523482126415E+06,
2459699.500000000, A.D. 2022-Apr-30 00:00:00.0000, -1.272573398106905E+08, 4.813261381049423E+08, -5.843310452621460E+06,
2459706.500000000, A.D. 2022-May-07 00:00:00.0000, -1.365734239112741E+08, 4.791866406102830E+08, -4.031797606711298E+06,
2459713.500000000, A.D. 2022-May-14 00:00:00.0000, -1.458359721759139E+08, 4.768591329667790E+08, -2.218700905415475E+06,
2459720.500000000, A.D. 2022-May-21 00:00:00.0000, -1.550414839806392E+08, 4.743449559968877E+08, -4.047336204897463E+05,
2459727.500000000, A.D. 2022-May-28 00:00:00.0000, -1.641864947358638E+08, 4.716455104772441E+08, 1.409393854304135E+06,
2459734.500000000, A.D. 2022-Jun-04 00:00:00.0000, -1.732675765236139E+08, 4.687622563406159E+08, 3.222974198222727E+06,
2459741.500000000, A.D. 2022-Jun-11 00:00:00.0000, -1.822813387758352E+08, 4.656967117987513E+08, 5.035303351948559E+06,
2459748.500000000, A.D. 2022-Jun-18 00:00:00.0000, -1.912244289559847E+08, 4.624504524000614E+08, 6.845680697102576E+06,
2459755.500000000, A.D. 2022-Jun-25 00:00:00.0000, -2.000935332153292E+08, 4.590251099896317E+08, 8.653409221654147E+06,
2459762.500000000, A.D. 2022-Jul-02 00:00:00.0000, -2.088853768907700E+08, 4.554223715064108E+08, 1.045779565379620E+07,
2459769.500000000, A.D. 2022-Jul-09 00:00:00.0000, -2.175967244549070E+08, 4.516439777950333E+08, 1.225815054321373E+07,
2459776.500000000, A.D. 2022-Jul-16 00:00:00.0000, -2.262243789749016E+08, 4.476917235158346E+08, 1.405378838358074E+07,
2459783.500000000, A.D. 2022-Jul-23 00:00:00.0000, -2.347651832797955E+08, 4.435674582323830E+08, 1.584402798455799E+07,
2459790.500000000, A.D. 2022-Jul-30 00:00:00.0000, -2.432160227519031E+08, 4.392730853231438E+08, 1.762819281184018E+07,
2459797.500000000, A.D. 2022-Aug-06 00:00:00.0000, -2.515738261439799E+08, 4.348105593638846E+08, 1.940561101859903E+07,
2459804.500000000, A.D. 2022-Aug-13 00:00:00.0000, -2.598355652476294E+08, 4.301818847360203E+08, 2.117561546933818E+07,
2459811.500000000, A.D. 2022-Aug-20 00:00:00.0000, -2.679982549830046E+08, 4.253891149593366E+08, 2.293754385931131E+07,
2459818.500000000, A.D. 2022-Aug-27 00:00:00.0000, -2.760589538411931E+08, 4.204343520227566E+08, 2.469073886422578E+07,
2459825.500000000, A.D. 2022-Sep-03 00:00:00.0000, -2.840147644309909E+08, 4.153197456018034E+08, 2.643454828874272E+07,
2459832.500000000, A.D. 2022-Sep-10 00:00:00.0000, -2.918628340400421E+08, 4.100474921854258E+08, 2.816832520765135E+07,
2459839.500000000, A.D. 2022-Sep-17 00:00:00.0000, -2.996003551817371E+08, 4.046198341091558E+08, 2.989142809698346E+07,
2459846.500000000, A.D. 2022-Sep-24 00:00:00.0000, -3.072245660690065E+08, 3.990390584429952E+08, 3.160322094544247E+07,
2459853.500000000, A.D. 2022-Oct-01 00:00:00.0000, -3.147327507768952E+08, 3.933074957118754E+08, 3.330307332236046E+07,
2459860.500000000, A.D. 2022-Oct-08 00:00:00.0000, -3.221222386882807E+08, 3.874275189715096E+08, 3.499036040750843E+07,
2459867.500000000, A.D. 2022-Oct-15 00:00:00.0000, -3.293904041561229E+08, 3.814015444399909E+08, 3.666446316620383E+07,
2459874.500000000, A.D. 2022-Oct-22 00:00:00.0000, -3.365346685647479E+08, 3.752320320030013E+08, 3.832476873215427E+07,
2459881.500000000, A.D. 2022-Oct-29 00:00:00.0000, -3.435525022911896E+08, 3.689214829993553E+08, 3.997067055680405E+07,
2459888.500000000, A.D. 2022-Nov-05 00:00:00.0000, -3.504414244668502E+08, 3.624724380259963E+08, 4.160156835641183E+07,
2459895.500000000, A.D. 2022-Nov-12 00:00:00.0000, -3.571990025060345E+08, 3.558874760292622E+08, 4.321686814053607E+07,
2459902.500000000, A.D. 2022-Nov-19 00:00:00.0000, -3.638228521216440E+08, 3.491692137289306E+08, 4.481598230988894E+07,
2459909.500000000, A.D. 2022-Nov-26 00:00:00.0000, -3.703106375659543E+08, 3.423203049775248E+08, 4.639832976699527E+07,
2459916.500000000, A.D. 2022-Dec-03 00:00:00.0000, -3.766600719307688E+08, 3.353434400427924E+08, 4.796333602348861E+07,
2459923.500000000, A.D. 2022-Dec-10 00:00:00.0000, -3.828689174619577E+08, 3.282413448315713E+08, 4.951043330145107E+07,
2459930.500000000, A.D. 2022-Dec-17 00:00:00.0000, -3.889349858642410E+08, 3.210167800296841E+08, 5.103906062459089E+07,
2459937.500000000, A.D. 2022-Dec-24 00:00:00.0000, -3.948561384873680E+08, 3.136725400916883E+08, 5.254866388397889E+07,
2459944.500000000, A.D. 2022-Dec-31 00:00:00.0000, -4.006302860365214E+08, 3.062114521876079E+08, 5.403869585447946E+07,
2459951.500000000, A.D. 2023-Jan-07 00:00:00.0000, -4.062553876848190E+08, 2.986363760685068E+08, 5.550861622943309E+07,
2459958.500000000, A.D. 2023-Jan-14 00:00:00.0000, -4.117294515561997E+08, 2.909502053475689E+08, 5.695789189486870E+07,
2459965.500000000, A.D. 2023-Jan-21 00:00:00.0000, -4.170505372244640E+08, 2.831558670249250E+08, 5.838599724344896E+07,
2459972.500000000, A.D. 2023-Jan-28 00:00:00.0000, -4.222167565593534E+08, 2.752563190606955E+08, 5.979241417584155E+07,
2459979.500000000, A.D. 2023-Feb-04 00:00:00.0000, -4.272262731276375E+08, 2.672545490222690E+08, 6.117663205606009E+07,
2459986.500000000, A.D. 2023-Feb-11 00:00:00.0000, -4.320773019456866E+08, 2.591535736117476E+08, 6.253814776981170E+07,
2459993.500000000, A.D. 2023-Feb-18 00:00:00.0000, -4.367681096472932E+08, 2.509564382507754E+08, 6.387646582458632E+07,
2460000.500000000, A.D. 2023-Feb-25 00:00:00.0000, -4.412970148036204E+08, 2.426662165607708E+08, 6.519109845425999E+07,
2460007.500000000, A.D. 2023-Mar-04 00:00:00.0000, -4.456623882928560E+08, 2.342860097567163E+08, 6.648156572046594E+07,
2460014.500000000, A.D. 2023-Mar-11 00:00:00.0000, -4.498626536910918E+08, 2.258189459543177E+08, 6.774739560832478E+07,
2460021.500000000, A.D. 2023-Mar-18 00:00:00.0000, -4.538962876378065E+08, 2.172681793405136E+08, 6.898812410846128E+07,
2460028.500000000, A.D. 2023-Mar-25 00:00:00.0000, -4.577618199732167E+08, 2.086368891597962E+08, 7.020329526318820E+07,
2460035.500000000, A.D. 2023-Apr-01 00:00:00.0000, -4.614578332235162E+08, 1.999282789095323E+08, 7.139246117049888E+07,
2460042.500000000, A.D. 2023-Apr-08 00:00:00.0000, -4.649829620500805E+08, 1.911455769690192E+08, 7.255518210285863E+07,
2460049.500000000, A.D. 2023-Apr-15 00:00:00.0000, -4.683358950010702E+08, 1.822920375563042E+08, 7.369102686530475E+07,
2460056.500000000, A.D. 2023-Apr-22 00:00:00.0000, -4.715153767571093E+08, 1.733709389620910E+08, 7.479957297802013E+07,
2460063.500000000, A.D. 2023-Apr-29 00:00:00.0000, -4.745202081342673E+08, 1.643855813141228E+08, 7.588040661659169E+07,
2460070.500000000, A.D. 2023-May-06 00:00:00.0000, -4.773492456029459E+08, 1.553392856520338E+08, 7.693312261659895E+07,
2460077.500000000, A.D. 2023-May-13 00:00:00.0000, -4.800014012992589E+08, 1.462353934182068E+08, 7.795732455883387E+07,
2460084.500000000, A.D. 2023-May-20 00:00:00.0000, -4.824756432944239E+08, 1.370772658728384E+08, 7.895262487321892E+07,
2460091.500000000, A.D. 2023-May-27 00:00:00.0000, -4.847709959283990E+08, 1.278682834025628E+08, 7.991864494091597E+07,
2460098.500000000, A.D. 2023-Jun-03 00:00:00.0000, -4.868865401506992E+08, 1.186118447473638E+08, 8.085501519127126E+07,
2460105.500000000, A.D. 2023-Jun-10 00:00:00.0000, -4.888214138457204E+08, 1.093113661313283E+08, 8.176137519028175E+07,
2460112.500000000, A.D. 2023-Jun-17 00:00:00.0000, -4.905748120545329E+08, 9.997028023708248E+07, 8.263737370754212E+07,
2460119.500000000, A.D. 2023-Jun-24 00:00:00.0000, -4.921459867735516E+08, 9.059203507970220E+07, 8.348266873681393E+07,
2460126.500000000, A.D. 2023-Jul-01 00:00:00.0000, -4.935342460766601E+08, 8.118009360813665E+07, 8.429692751447305E+07,
2460133.500000000, A.D. 2023-Jul-08 00:00:00.0000, -4.947389542344562E+08, 7.173793485559767E+07, 8.507982675631869E+07,
2460140.500000000, A.D. 2023-Jul-15 00:00:00.0000, -4.957595341080227E+08, 6.226905380851631E+07, 8.583105299860731E+07,
2460147.500000000, A.D. 2023-Jul-22 00:00:00.0000, -4.965954682961217E+08, 5.277695895996878E+07, 8.655030263587773E+07,
$$EOE